CUBEBUG-2 (LO-74)       
1 39440U 13066AA  26160.09167476  .00003409  00000+0  31702-3 0  9992
2 39440  97.8903 109.0359 0059191  55.3304 305.3474 14.93697738675786
FUNCUBE-1 (AO-73)       
1 39444U 13066AE  26160.16786604  .00005048  00000+0  31574-3 0  9992
2 39444  97.8270 131.4468 0034829 228.8451 130.9771 15.09393647678457
UWE-3                   
1 39446U 13066AG  26160.12782108  .00003499  00000+0  30256-3 0  9999
2 39446  97.8686 116.1479 0048769 348.2293  11.7784 14.96959057676378
UNISAT-6                
1 40012U 14033C   26160.13227691  .00002442  00000+0  26550-3 0  9996
2 40012  97.7870 312.9873 0046442  95.0707 265.5813 14.88202581644966
DUCHIFAT-1              
1 40021U 14033M   26160.08702088  .00082350  00000+0  90222-3 0  9991
2 40021  98.0464 218.1182 0004325 130.2252 229.9384 15.62989578654486
QB50P1                  
1 40025U 14033R   26159.97738240  .00008544  00000+0  42192-3 0  9996
2 40025  98.0972 170.5484 0007210 248.4220 111.6244 15.18136091651780
LILACSAT-2              
1 40908U 15049K   26160.14480867  .00015708  00000+0  27027-3 0  9994
2 40908  97.4660 196.6818 0005276 284.1911  75.8755 15.51177818594504
FOX-1A (AO-85)          
1 40967U 15058D   26159.76689639  .00003039  00000+0  27655-3 0  9994
2 40967  64.7758 305.1507 0129970  59.8929 301.4993 14.90929725112311
CAS-2T & KS-1Q          
1 41847U 16066G   26160.20623799  .00001572  00000+0  22785-3 0  9997
2 41847  98.3822 236.0336 0342497 153.6291 208.2796 14.44667476503648
RADFXSAT (FOX-1B)       
1 43017U 17073E   26159.34389375  .00007664  00000+0  33533-3 0  9990
2 43017  97.4721  26.7398 0150895 359.9259   0.1924 15.12571253464059
DIWATA-2B               
1 43678U 18084H   26160.16724348  .00002273  00000+0  18582-3 0  9999
2 43678  98.1172 356.0277 0012026 196.6436 163.4393 15.00413597415019
ES'HAIL 2               
1 43700U 18090A   26160.13311762  .00000161  00000+0  00000+0 0  9997
2 43700   0.0166 288.7563 0001914 188.6888 213.8024  1.00273570 27598
FOX-1CLIFF (AO-95)      
1 43770U 18099N   26160.08109071  .00008954  00000+0  34498-3 0  9995
2 43770  97.4389 220.3580 0008826  27.1898 332.9801 15.26538897411985
ITASAT                  
1 43786U 18099AE  26160.11674281  .00005227  00000+0  25280-3 0  9995
2 43786  97.4032 211.7901 0012984  28.2656 331.9281 15.18954369411687
JY1SAT (JO-97)          
1 43803U 18099AX  26160.13509799  .00014955  00000+0  46531-3 0  9998
2 43803  97.4132 222.9432 0004209 303.3283  56.7556 15.33397143412399
UWE-4                   
1 43880U 18111E   26159.73543037  .00034399  00000+0  71406-3 0  9998
2 43880  97.5854  87.7396 0007085  15.0599 345.0859 15.45597672409471
TIANYAN 01              
1 44881U 19093C   26160.16913984  .00001508  00000+0  17610-3 0  9994
2 44881  97.7528 232.5966 0014956 110.5394 249.7428 14.86509678350228
RS-44 & BREEZE-KM R/B   
1 44909U 19096E   26160.03067303  .00000031  00000+0  74267-4 0  9991
2 44909  82.5218 345.1262 0217800 163.1883 197.6587 12.79748671301307
SALSAT                  
1 46495U 20068K   26159.90359286  .00007690  00000+0  27004-3 0  9996
2 46495  97.8856 162.4647 0008807 341.8369  18.2554 15.29680035314091
XW-3 (CAS-9)            
1 50466U 21131B   26160.21022292  .00000555  00000+0  18521-3 0  9998
2 50466  98.4971 252.6431 0005259 115.1731 245.0004 14.41350764233967
GREENCUBE (IO-117)      
1 53109U 22080E   26152.46502029 -.00000003  00000+0  00000+0 0  9996
2 53109  70.1435 303.7143 0008869 293.3663  66.6064  6.42583280 91055
UMKA 1 (RS40S)          
1 57172U 23091G   26160.19814931  .00005129  00000+0  23581-3 0  9996
2 57172  97.5054 218.9265 0013864 142.6984 217.5217 15.20724572162798
CUBESX-HSE 3 (RS42S)    
1 57178U 23091N   26160.13531289  .00012153  00000+0  40716-3 0  9992
2 57178  97.5095 225.6217 0012146 119.5249 240.7205 15.31009862163190
MONITOR-3 (RS58S)       
1 57180U 23091Q   26160.14214457  .00009342  00000+0  34722-3 0  9997
2 57180  97.5087 223.5301 0013020 125.6118 234.6336 15.27677576163061
MONITOR-4 (RS57S)       
1 57182U 23091S   26160.18716032  .00009303  00000+0  34480-3 0  9997
2 57182  97.5081 223.5460 0013022 125.8050 234.4401 15.27772635163076
MONITOR-2 (RS39S)       
1 57184U 23091U   26160.07766227  .00003964  00000+0  19330-3 0  9992
2 57184  97.5076 218.4133 0012398 136.0149 224.2074 15.18833825162723
SVYATOBOR 1 (RS60S)     
1 57187U 23091X   26160.12788131  .00008113  00000+0  31334-3 0  9998
2 57187  97.5092 223.9010 0010858 118.4882 241.7452 15.26476537163082
VIZARD-METEO (RS38S)    
1 57189U 23091Z   26160.13411333  .00015262  00000+0  44016-3 0  9992
2 57189  97.5094 229.4595 0008679 101.7059 258.5159 15.35768207163453
POLYTECH-UNIVERSE 3 (R*)
1 57191U 23091AB  26160.17180867  .00004773  00000+0  23042-3 0  9995
2 57191  97.5052 218.0114 0016368 152.5857 207.6244 15.19035577162734
UTMN 2 (RS27S)          
1 57203U 23091AP  26160.15731360  .00011337  00000+0  37057-3 0  9992
2 57203  97.5090 227.2681 0009485 107.5899 252.6379 15.31853047163317
